QIANFAN-49              
1 62250U 24232P   26011.61413647  .00000034  00000+0  34128-4 0  9998
2 62250  89.0003  38.2193 0016108 107.1521 253.1396 13.50983258 71872
QIANFAN-50              
1 62251U 24232Q   26011.56479817  .00000034  00000+0  33714-4 0  9994
2 62251  89.0008  38.2341 0017750 108.6365 251.6716 13.50980085 71895
QIANFAN-51              
1 62252U 24232R   26011.54831647  .00000032  00000+0  29983-4 0  9997
2 62252  89.0002  38.2278 0015208 111.6276 248.6497 13.50982726 71885
QIANFAN-52              
1 62253U 24232S   26011.57716683  .00000029  00000+0  26049-4 0  9999
2 62253  88.9998  38.0973 0017278 104.9291 255.3775 13.50980737 71973
QIANFAN-53              
1 62254U 24232T   26011.63058809  .00000028  00000+0  24462-4 0  9992
2 62254  89.0006  38.1986 0016150 105.6506 254.6429 13.50983335 71948
QIANFAN-54              
1 62255U 24232U   26011.59765101  .00000025  00000+0  19855-4 0  9995
2 62255  88.9997  37.8777 0003617 122.7338 237.4162 13.50983715103443
QIANFAN-55              
1 62785U 25016A   26011.54955410  .00000153  00000+0  21856-3 0  9998
2 62785  88.9774 100.1356 0015673 259.1471 100.7916 13.50986144 51214
QIANFAN-56              
1 62786U 25016B   26011.64008179  .00000154  00000+0  21981-3 0  9991
2 62786  88.9747  99.9547 0014291 261.1653  98.7880 13.50988646 51273
